CCSDS_OMM_VERS = 2.0
CREATION_DATE  = 
ORIGINATOR     = 

OBJECT_NAME    = YOTSUBA-KULOVER
OBJECT_ID      = 1998-067XN
CENTER_NAME    = EARTH
REF_FRAME      = TEME
TIME_SYSTEM    = UTC
MEAN_ELEMENT_THEORY = SGP/SGP4

EPOCH          = 2026-03-04T07:51:03.525696
MEAN_MOTION    = 15.78107560
ECCENTRICITY   = .0006069
INCLINATION    = 51.6210
RA_OF_ASC_NODE = 85.0577
ARG_OF_PERICENTER = 34.8104
MEAN_ANOMALY   = 325.3293

EPHEMERIS_TYPE = 0
CLASSIFICATION_TYPE = U
NORAD_CAT_ID   = 65941
ELEMENT_SET_NO = 999
REV_AT_EPOCH   = 2265
BSTAR          = .13142924E-2
MEAN_MOTION_DOT = .235069E-2
MEAN_MOTION_DDOT = 0

CCSDS_OMM_VERS = 2.0
CREATION_DATE  = 
ORIGINATOR     = 

OBJECT_NAME    = BOTAN
OBJECT_ID      = 1998-067XP
CENTER_NAME    = EARTH
REF_FRAME      = TEME
TIME_SYSTEM    = UTC
MEAN_ELEMENT_THEORY = SGP/SGP4

EPOCH          = 2026-03-03T07:18:10.975680
MEAN_MOTION    = 16.26065139
ECCENTRICITY   = .00029265
INCLINATION    = 51.6040
RA_OF_ASC_NODE = 82.5602
ARG_OF_PERICENTER = 46.9281
MEAN_ANOMALY   = 313.1984

EPHEMERIS_TYPE = 0
CLASSIFICATION_TYPE = U
NORAD_CAT_ID   = 65942
ELEMENT_SET_NO = 999
REV_AT_EPOCH   = 2259
BSTAR          = .14502781E-2
MEAN_MOTION_DOT = .4760636E-1
MEAN_MOTION_DDOT = .12040774E-4

CCSDS_OMM_VERS = 2.0
CREATION_DATE  = 
ORIGINATOR     = 

OBJECT_NAME    = E-KAGAKU-1
OBJECT_ID      = 1998-067XQ
CENTER_NAME    = EARTH
REF_FRAME      = TEME
TIME_SYSTEM    = UTC
MEAN_ELEMENT_THEORY = SGP/SGP4

EPOCH          = 2026-03-04T07:55:57.408384
MEAN_MOTION    = 15.77837895
ECCENTRICITY   = .00061979
INCLINATION    = 51.6236
RA_OF_ASC_NODE = 85.0969
ARG_OF_PERICENTER = 41.7639
MEAN_ANOMALY   = 318.3833

EPHEMERIS_TYPE = 0
CLASSIFICATION_TYPE = U
NORAD_CAT_ID   = 65943
ELEMENT_SET_NO = 999
REV_AT_EPOCH   = 2265
BSTAR          = .12960261E-2
MEAN_MOTION_DOT = .22885E-2
MEAN_MOTION_DDOT = 0

CCSDS_OMM_VERS = 2.0
CREATION_DATE  = 
ORIGINATOR     = 

OBJECT_NAME    = HRC MONOBLOCK CAMERA
OBJECT_ID      = 1998-067XR
CENTER_NAME    = EARTH
REF_FRAME      = TEME
TIME_SYSTEM    = UTC
MEAN_ELEMENT_THEORY = SGP/SGP4

EPOCH          = 2026-03-04T07:49:05.206080
MEAN_MOTION    = 15.61539158
ECCENTRICITY   = .00034173
INCLINATION    = 51.6270
RA_OF_ASC_NODE = 92.5913
ARG_OF_PERICENTER = 67.9159
MEAN_ANOMALY   = 292.2198

EPHEMERIS_TYPE = 0
CLASSIFICATION_TYPE = U
NORAD_CAT_ID   = 66052
ELEMENT_SET_NO = 999
REV_AT_EPOCH   = 2155
BSTAR          = .77710389E-3
MEAN_MOTION_DOT = .68021E-3
MEAN_MOTION_DDOT = 0

CCSDS_OMM_VERS = 2.0
CREATION_DATE  = 
ORIGINATOR     = 

OBJECT_NAME    = HTV-X1
OBJECT_ID      = 2025-241A
CENTER_NAME    = EARTH
REF_FRAME      = TEME
TIME_SYSTEM    = UTC
MEAN_ELEMENT_THEORY = SGP/SGP4

EPOCH          = 2026-03-04T13:03:23.893056
MEAN_MOTION    = 15.48441338
ECCENTRICITY   = .00081981
INCLINATION    = 51.6315
RA_OF_ASC_NODE = 97.7962
ARG_OF_PERICENTER = 156.3781
MEAN_ANOMALY   = 203.7585

EPHEMERIS_TYPE = 0
CLASSIFICATION_TYPE = U
NORAD_CAT_ID   = 66174
ELEMENT_SET_NO = 999
REV_AT_EPOCH   = 55447
BSTAR          = .1831132E-3
MEAN_MOTION_DOT = .9464E-4
MEAN_MOTION_DDOT = 0

CCSDS_OMM_VERS = 2.0
CREATION_DATE  = 
ORIGINATOR     = 

OBJECT_NAME    = SZ-21 MODULE
OBJECT_ID      = 2025-246C
CENTER_NAME    = EARTH
REF_FRAME      = TEME
TIME_SYSTEM    = UTC
MEAN_ELEMENT_THEORY = SGP/SGP4

EPOCH          = 2026-03-04T12:48:09.681696
MEAN_MOTION    = 15.68084352
ECCENTRICITY   = .00014354
INCLINATION    = 41.4731
RA_OF_ASC_NODE = 235.0908
ARG_OF_PERICENTER = 286.9627
MEAN_ANOMALY   = 73.1057

EPHEMERIS_TYPE = 0
CLASSIFICATION_TYPE = U
NORAD_CAT_ID   = 66515
ELEMENT_SET_NO = 999
REV_AT_EPOCH   = 1726
BSTAR          = .41049242E-3
MEAN_MOTION_DOT = .46935E-3
MEAN_MOTION_DDOT = 0

CCSDS_OMM_VERS = 2.0
CREATION_DATE  = 
ORIGINATOR     = 

OBJECT_NAME    = SHENZHOU-22
OBJECT_ID      = 2025-272A
CENTER_NAME    = EARTH
REF_FRAME      = TEME
TIME_SYSTEM    = UTC
MEAN_ELEMENT_THEORY = SGP/SGP4

EPOCH          = 2026-03-04T12:45:43.653600
MEAN_MOTION    = 15.60393731
ECCENTRICITY   = .00068804
INCLINATION    = 41.4656
RA_OF_ASC_NODE = 239.5396
ARG_OF_PERICENTER = 242.0703
MEAN_ANOMALY   = 117.9439

EPHEMERIS_TYPE = 0
CLASSIFICATION_TYPE = U
NORAD_CAT_ID   = 66645
ELEMENT_SET_NO = 999
REV_AT_EPOCH   = 26752
BSTAR          = .29808174E-3
MEAN_MOTION_DOT = .24935E-3
MEAN_MOTION_DDOT = 0

CCSDS_OMM_VERS = 2.0
CREATION_DATE  = 
ORIGINATOR     = 

OBJECT_NAME    = SOYUZ-MS 28
OBJECT_ID      = 2025-275A
CENTER_NAME    = EARTH
REF_FRAME      = TEME
TIME_SYSTEM    = UTC
MEAN_ELEMENT_THEORY = SGP/SGP4

EPOCH          = 2026-03-04T13:03:23.893056
MEAN_MOTION    = 15.48441338
ECCENTRICITY   = .00081981
INCLINATION    = 51.6315
RA_OF_ASC_NODE = 97.7962
ARG_OF_PERICENTER = 156.3781
MEAN_ANOMALY   = 203.7585

EPHEMERIS_TYPE = 0
CLASSIFICATION_TYPE = U
NORAD_CAT_ID   = 66664
ELEMENT_SET_NO = 999
REV_AT_EPOCH   = 55452
BSTAR          = .1831132E-3
MEAN_MOTION_DOT = .9464E-4
MEAN_MOTION_DDOT = 0

CCSDS_OMM_VERS = 2.0
CREATION_DATE  = 
ORIGINATOR     = 

OBJECT_NAME    = DUPLEX
OBJECT_ID      = 1998-067XS
CENTER_NAME    = EARTH
REF_FRAME      = TEME
TIME_SYSTEM    = UTC
MEAN_ELEMENT_THEORY = SGP/SGP4

EPOCH          = 2026-03-04T09:12:56.728224
MEAN_MOTION    = 15.55826494
ECCENTRICITY   = .00020746
INCLINATION    = 51.6284
RA_OF_ASC_NODE = 95.9816
ARG_OF_PERICENTER = 91.8511
MEAN_ANOMALY   = 268.2718

EPHEMERIS_TYPE = 0
CLASSIFICATION_TYPE = U
NORAD_CAT_ID   = 66906
ELEMENT_SET_NO = 999
REV_AT_EPOCH   = 1430
BSTAR          = .60283877E-3
MEAN_MOTION_DOT = .42212E-3
MEAN_MOTION_DDOT = 0

CCSDS_OMM_VERS = 2.0
CREATION_DATE  = 
ORIGINATOR     = 

OBJECT_NAME    = ISS OBJECT XT
OBJECT_ID      = 1998-067XT
CENTER_NAME    = EARTH
REF_FRAME      = TEME
TIME_SYSTEM    = UTC
MEAN_ELEMENT_THEORY = SGP/SGP4

EPOCH          = 2026-03-04T07:03:20.165760
MEAN_MOTION    = 15.67417551
ECCENTRICITY   = .000464
INCLINATION    = 51.6246
RA_OF_ASC_NODE = 93.1197
ARG_OF_PERICENTER = 42.9722
MEAN_ANOMALY   = 317.1636

EPHEMERIS_TYPE = 0
CLASSIFICATION_TYPE = U
NORAD_CAT_ID   = 66907
ELEMENT_SET_NO = 999
REV_AT_EPOCH   = 1433
BSTAR          = .16714221E-2
MEAN_MOTION_DOT = .188353E-2
MEAN_MOTION_DDOT = 0

CCSDS_OMM_VERS = 2.0
CREATION_DATE  = 
ORIGINATOR     = 

OBJECT_NAME    = ISS OBJECT XU
OBJECT_ID      = 1998-067XU
CENTER_NAME    = EARTH
REF_FRAME      = TEME
TIME_SYSTEM    = UTC
MEAN_ELEMENT_THEORY = SGP/SGP4

EPOCH          = 2026-03-04T07:01:15.985632
MEAN_MOTION    = 15.67514512
ECCENTRICITY   = .0004676
INCLINATION    = 51.6245
RA_OF_ASC_NODE = 93.1068
ARG_OF_PERICENTER = 47.0078
MEAN_ANOMALY   = 313.1309

EPHEMERIS_TYPE = 0
CLASSIFICATION_TYPE = U
NORAD_CAT_ID   = 66908
ELEMENT_SET_NO = 999
REV_AT_EPOCH   = 1433
BSTAR          = .16844747E-2
MEAN_MOTION_DOT = .190633E-2
MEAN_MOTION_DDOT = 0

CCSDS_OMM_VERS = 2.0
CREATION_DATE  = 
ORIGINATOR     = 

OBJECT_NAME    = SILVERSAT
OBJECT_ID      = 1998-067XV
CENTER_NAME    = EARTH
REF_FRAME      = TEME
TIME_SYSTEM    = UTC
MEAN_ELEMENT_THEORY = SGP/SGP4

EPOCH          = 2026-03-04T05:44:31.310592
MEAN_MOTION    = 15.69945816
ECCENTRICITY   = .00054898
INCLINATION    = 51.6239
RA_OF_ASC_NODE = 92.7506
ARG_OF_PERICENTER = 43.4066
MEAN_ANOMALY   = 316.7363

EPHEMERIS_TYPE = 0
CLASSIFICATION_TYPE = U
NORAD_CAT_ID   = 66909
ELEMENT_SET_NO = 999
REV_AT_EPOCH   = 1433
BSTAR          = .18132061E-2
MEAN_MOTION_DOT = .227913E-2
MEAN_MOTION_DDOT = 0

